NORAD_CAT_ID,OBJECT_NAME,OBJECT_TYPE,EPOCH,MEAN_MOTION,ECCENTRICITY,INCLINATION,RA_OF_ASC_NODE,ARG_OF_PERICENTER,MEAN_ANOMALY,BSTAR,MEAN_MOTION_DOT,MEAN_MOTION_DDOT,TLE_LINE0,TLE_LINE1,TLE_LINE2,SEMIMAJOR_AXIS,PERIOD,APOGEE,PERIGEE,DECAYED
54161.0,STARLINK-5269,PAYLOAD,2023-09-22 12:47:23,15.08848549,0.0001481,53.2169,90.6949,90.7542,269.362,0.00047231,7.239e-05,0.0,0 STARLINK-5269,1 54161U 22141E   23265.53290993  .00007239  00000-0  47231-3 0  9996,2 54161  53.2169  90.6949 0001481  90.7542 269.3620 15.08848549 49972,6917.854,95.437,540.744,538.695,0.0
54161.0,STARLINK-5269,PAYLOAD,2023-09-22 19:08:55,15.08861811,0.0001487,53.2172,89.5052,91.8505,268.2657,0.00068077,0.00010569,0.0,0 STARLINK-5269,1 54161U 22141E   23265.79786530  .00010569  00000-0  68077-3 0  9992,2 54161  53.2172  89.5052 0001487  91.8505 268.2657 15.08861811 50017,6917.814,95.436,540.707,538.65,0.0
54161.0,STARLINK-5269,PAYLOAD,2023-09-23 12:38:10,15.08851595,0.0001337,53.2174,86.2353,86.0034,274.1111,0.00022877,3.356e-05,0.0,0 STARLINK-5269,1 54161U 22141E   23266.52650466  .00003356  00000-0  22877-3 0  9996,2 54161  53.2174  86.2353 0001337  86.0034 274.1111 15.08851595 50125,6917.845,95.437,540.635,538.785,0.0
54161.0,STARLINK-5269,PAYLOAD,2023-09-23 18:59:42,15.08828932,0.0001198,53.2174,85.0453,91.1016,269.0113,-0.00035339,-5.906e-05,0.0,0 STARLINK-5269,1 54161U 22141E   23266.79146827 -.00005906  00000-0 -35339-3 0  9998,2 54161  53.2174  85.0453 0001198  91.1016 269.0113 15.08828932 50163,6917.914,95.438,540.608,538.95,0.0
54161.0,STARLINK-5269,PAYLOAD,2023-09-24 10:53:34,15.08832985,0.0001084,53.2165,82.0699,87.9989,272.1127,0.00025037,3.698e-05,0.0,0 STARLINK-5269,1 54161U 22141E   23267.45387371  .00003698  00000-0  25037-3 0  9991,2 54161  53.2165  82.0699 0001084  87.9989 272.1127 15.08832985 50262,6917.902,95.438,540.517,539.017,0.0
54161.0,STARLINK-5269,PAYLOAD,2023-09-24 18:50:30,15.08848888,0.0001136,53.2173,80.5851,92.7634,267.3488,0.0010433,0.00016359,0.0,0 STARLINK-5269,1 54161U 22141E   23267.78507331  .00016359  00000-0  10433-2 0  9998,2 54161  53.2173  80.5851 0001136  92.7634 267.3488 15.08848888 50314,6917.853,95.437,540.504,538.932,0.0
54161.0,STARLINK-5269,PAYLOAD,2023-09-25 12:19:44,15.08859718,0.0001338,53.2177,77.3137,100.0685,260.0458,0.00079623,0.00012414,0.0,0 STARLINK-5269,1 54161U 22141E   23268.51370787  .00012414  00000-0  79623-3 0  9998,2 54161  53.2177  77.3137 0001338 100.0685 260.0458 15.08859718 50425,6917.82,95.436,540.611,538.76,0.0
54161.0,STARLINK-5269,PAYLOAD,2023-09-25 18:41:16,15.08865149,0.000114,53.217,76.1244,90.6911,269.4212,0.0007534,0.00011731,0.0,0 STARLINK-5269,1 54161U 22141E   23268.77866405  .00011731  00000-0  75340-3 0  9996,2 54161  53.2170  76.1244 0001140  90.6911 269.4212 15.08865149 50461,6917.804,95.436,540.457,538.88,0.0
54161.0,STARLINK-5269,PAYLOAD,2023-09-25 20:16:39,15.08867801,0.0001136,53.2169,75.827,90.9917,269.1206,0.00080639,0.00012579,0.0,0 STARLINK-5269,1 54161U 22141E   23268.84490265  .00012579  00000-0  80639-3 0  9999,2 54161  53.2169  75.8270 0001136  90.9917 269.1206 15.08867801 50476,6917.795,95.436,540.446,538.875,0.0
54161.0,STARLINK-5269,PAYLOAD,2023-09-26 16:56:41,15.08825323,0.0001417,53.2158,71.9597,152.2989,207.8079,-0.00015955,-2.825e-05,0.0,0 STARLINK-5269,1 54161U 22141E   23269.70603105 -.00002825  00000-0 -15955-3 0  9998,2 54161  53.2158  71.9597 0001417 152.2989 207.8079 15.08825323 50601,6917.925,95.438,540.771,538.81,0.0
54161.0,STARLINK-5269,PAYLOAD,2023-09-26 20:07:27,15.0882188,0.0001226,53.2162,71.3654,101.7912,258.3217,-0.00026775,-4.544e-05,0.0,0 STARLINK-5269,1 54161U 22141E   23269.83851747 -.00004544  00000-0 -26775-3 0  9991,2 54161  53.2162  71.3654 0001226 101.7912 258.3217 15.08821880 50628,6917.936,95.439,540.649,538.953,0.0
54161.0,STARLINK-5269,PAYLOAD,2023-09-27 10:25:56,15.0882704,0.0001206,53.2166,68.688,96.9477,263.1652,-9.2639e-05,-1.761e-05,0.0,0 STARLINK-5269,1 54161U 22141E   23270.43468446 -.00001761  00000-0 -92639-4 0  9990,2 54161  53.2166  68.6880 0001206  96.9477 263.1652 15.08827040 50712,6917.92,95.438,540.619,538.951,0.0
54161.0,STARLINK-5269,PAYLOAD,2023-09-27 18:22:52,15.08839144,0.0001511,53.2166,67.2027,86.3713,273.7452,0.00048391,7.422e-05,0.0,0 STARLINK-5269,1 54161U 22141E   23270.76588516  .00007422  00000-0  48391-3 0  9990,2 54161  53.2166  67.2027 0001511  86.3713 273.7452 15.08839144 50763,6917.883,95.438,540.793,538.703,0.0
54161.0,STARLINK-5269,PAYLOAD,2023-09-28 15:02:52,15.08874274,0.0001536,53.216,63.3371,81.5529,278.5637,0.0011253,0.00017683,0.0,0 STARLINK-5269,1 54161U 22141E   23271.62699664  .00017683  00000-0  11253-2 0  9999,2 54161  53.2160  63.3371 0001536  81.5529 278.5637 15.08874274 50890,6917.776,95.435,540.703,538.578,0.0
54161.0,STARLINK-5269,PAYLOAD,2023-09-28 16:38:15,15.08876857,0.0001531,53.2161,63.0397,81.1504,278.9662,0.0011454,0.00018006,0.0,0 STARLINK-5269,1 54161U 22141E   23271.69323507  .00018006  00000-0  11454-2 0  9999,2 54161  53.2161  63.0397 0001531  81.1504 278.9662 15.08876857 50903,6917.768,95.435,540.692,538.574,0.0
54161.0,STARLINK-5269,PAYLOAD,2023-09-29 10:07:29,15.08857488,0.0001559,53.2165,59.7684,96.9444,263.1726,0.00037332,5.661e-05,0.0,0 STARLINK-5269,1 54161U 22141E   23272.42187283  .00005661  00000-0  37332-3 0  9997,2 54161  53.2165  59.7684 0001559  96.9444 263.1726 15.08857488 51014,6917.827,95.436,540.77,538.613,0.0
54161.0,STARLINK-5269,PAYLOAD,2023-09-29 13:18:16,15.08857526,0.0001684,53.2173,59.1739,126.0137,234.1011,0.00052938,8.151e-05,0.0,0 STARLINK-5269,1 54161U 22141E   23272.55435198  .00008151  00000-0  52938-3 0  9998,2 54161  53.2173  59.1739 0001684 126.0137 234.1011 15.08857526 51031,6917.827,95.436,540.857,538.527,0.0
54161.0,STARLINK-5269,PAYLOAD,2023-09-29 16:29:02,15.088447,0.0001443,53.2175,58.5747,119.3335,240.7802,7.6482e-05,9.3e-06,0.0,0 STARLINK-5269,1 54161U 22141E   23272.68683301  .00000930  00000-0  76482-4 0  9991,2 54161  53.2175  58.5747 0001443 119.3335 240.7802 15.08844700 51056,6917.866,95.437,540.729,538.733,0.0
54161.0,STARLINK-5269,PAYLOAD,2023-10-01 01:52:07,15.08853698,0.0001379,53.218,52.3294,68.6391,291.4748,0.00044398,6.788e-05,0.0,0 STARLINK-5269,1 54161U 22141E   23274.07786985  .00006788  00000-0  44398-3 0  9995,2 54161  53.2180  52.3294 0001379  68.6391 291.4748 15.08853698 51268,6917.839,95.437,540.657,538.75,0.0
54161.0,STARLINK-5269,PAYLOAD,2023-10-01 12:59:49,15.08852678,0.0001426,53.2183,50.2514,82.0991,278.0163,0.00029723,4.447e-05,0.0,0 STARLINK-5269,1 54161U 22141E   23274.54154852  .00004447  00000-0  29723-3 0  9994,2 54161  53.2183  50.2514 0001426  82.0991 278.0163 15.08852678 51339,6917.842,95.437,540.693,538.72,0.0
54161.0,STARLINK-5269,PAYLOAD,2023-10-01 16:10:35,15.08863975,0.0001221,53.219,49.6592,92.9113,267.2019,0.00052316,8.053e-05,0.0,0 STARLINK-5269,1 54161U 22141E   23274.67402381  .00008053  00000-0  52316-3 0  9992,2 54161  53.2190  49.6592 0001221  92.9113 267.2019 15.08863975 51358,6917.807,95.436,540.517,538.827,0.0
54161.0,STARLINK-5269,PAYLOAD,2023-10-02 01:42:54,15.08862007,0.0001228,53.2183,47.8695,58.8097,301.3015,0.00034664,5.236e-05,0.0,0 STARLINK-5269,1 54161U 22141E   23275.07146014  .00005236  00000-0  34664-3 0  9991,2 54161  53.2183  47.8695 0001228  58.8097 301.3015 15.08862007 51411,6917.813,95.436,540.528,538.829,0.0
54161.0,STARLINK-5269,PAYLOAD,2023-10-02 09:39:50,15.0882633,0.0001414,53.2187,46.387,87.6899,272.4255,-0.00047947,-7.908e-05,0.0,0 STARLINK-5269,1 54161U 22141E   23275.40266975 -.00007908  00000-0 -47947-3 0  9995,2 54161  53.2187  46.3870 0001414  87.6899 272.4255 15.08826330 51469,6917.922,95.438,540.765,538.809,0.0
54161.0,STARLINK-5269,PAYLOAD,2023-10-02 16:01:23,15.0883257,0.0001514,53.219,45.2001,95.468,264.6484,-0.00012083,-2.21e-05,0.0,0 STARLINK-5269,1 54161U 22141E   23275.66763096 -.00002210  00000-0 -12083-3 0  9993,2 54161  53.2190  45.2001 0001514  95.4680 264.6484 15.08832570 51508,6917.903,95.438,540.815,538.721,0.0
54161.0,STARLINK-5269,PAYLOAD,2023-10-03 01:33:42,15.0883622,0.0001545,53.2189,43.416,92.5993,267.5176,0.00017879,2.558e-05,0.0,0 STARLINK-5269,1 54161U 22141E   23276.06507356  .00002558  00000-0  17879-3 0  9994,2 54161  53.2189  43.4160 0001545  92.5993 267.5176 15.08836220 51563,6917.892,95.438,540.826,538.688,0.0
54161.0,STARLINK-5269,PAYLOAD,2023-10-03 14:16:47,15.08845965,0.0001628,53.2186,41.037,91.3283,268.7895,0.00088163,0.00013773,0.0,0 STARLINK-5269,1 54161U 22141E   23276.59499657  .00013773  00000-0  88163-3 0  9991,2 54161  53.2186  41.0370 0001628  91.3283 268.7895 15.08845965 51644,6917.862,95.437,540.853,538.601,0.0
54161.0,STARLINK-5269,PAYLOAD,2023-10-03 15:52:10,15.08850793,0.0001609,53.2186,40.7396,90.2565,269.8611,0.0010049,0.00015746,0.0,0 STARLINK-5269,1 54161U 22141E   23276.66123566  .00015746  00000-0  10049-2 0  9991,2 54161  53.2186  40.7396 0001609  90.2565 269.8611 15.08850793 51652,6917.847,95.437,540.825,538.599,0.0
54161.0,STARLINK-5269,PAYLOAD,2023-10-04 09:21:25,15.08855348,0.0001565,53.2187,37.469,98.8288,261.2882,0.00071249,0.00011074,0.0,0 STARLINK-5269,1 54161U 22141E   23277.38987354  .00011074  00000-0  71249-3 0  9994,2 54161  53.2187  37.4690 0001565  98.8288 261.2882 15.08855348 51769,6917.833,95.437,540.781,538.616,0.0
54161.0,STARLINK-5269,PAYLOAD,2023-10-04 14:07:34,15.08859664,0.0001623,53.2182,36.5759,91.3937,268.7241,0.00076398,0.00011898,0.0,0 STARLINK-5269,1 54161U 22141E   23277.58859161  .00011898  00000-0  76398-3 0  9994,2 54161  53.2182  36.5759 0001623  91.3937 268.7241 15.08859664 51793,6917.82,95.436,540.808,538.563,0.0
54161.0,STARLINK-5269,PAYLOAD,2023-10-04 17:18:20,15.08867162,0.000164,53.2179,35.9803,89.5632,270.5548,0.0010494,0.00016465,0.0,0 STARLINK-5269,1 54161U 22141E   23277.72106937  .00016465  00000-0  10494-2 0  9995,2 54161  53.2179  35.9803 0001640  89.5632 270.5548 15.08867162 51818,6917.797,95.436,540.797,538.528,0.0
